NORAD_CAT_ID,OBJECT_NAME,OBJECT_TYPE,EPOCH,MEAN_MOTION,ECCENTRICITY,INCLINATION,RA_OF_ASC_NODE,ARG_OF_PERICENTER,MEAN_ANOMALY,BSTAR,MEAN_MOTION_DOT,MEAN_MOTION_DDOT,TLE_LINE0,TLE_LINE1,TLE_LINE2,SEMIMAJOR_AXIS,PERIOD,APOGEE,PERIGEE,DECAYED
51779.0,STARLINK-3611,PAYLOAD,2022-10-31 19:24:38,15.08836988,0.0002117,53.218,77.8346,34.2213,325.8915,-1.6627000000000002e-05,-5.53e-06,0.0,0 STARLINK-3611,1 51779U 22017M   22304.80878199 -.00000553  00000-0 -16627-4 0  9993,2 51779  53.2180  77.8346 0002117  34.2213 325.8915 15.08836988 39147,6917.89,95.438,541.219,538.29,0.0
51779.0,STARLINK-3611,PAYLOAD,2022-11-01 08:07:44,15.08830072,0.0002149,53.2173,75.4539,30.1762,329.9353,2.9295e-05,1.78e-06,0.0,0 STARLINK-3611,1 51779U 22017M   22305.33870640  .00000178  00000-0  29295-4 0  9991,2 51779  53.2173  75.4539 0002149  30.1762 329.9353 15.08830072 37738,6917.911,95.438,541.262,538.289,0.0
51779.0,STARLINK-3611,PAYLOAD,2022-11-01 12:53:53,15.08827255,0.0002106,53.217,74.5614,31.1988,328.9128,1.4482e-05,-5.8e-07,0.0,0 STARLINK-3611,1 51779U 22017M   22305.53743003 -.00000058  00000-0  14482-4 0  9995,2 51779  53.2170  74.5614 0002106  31.1988 328.9128 15.08827255 37764,6917.919,95.438,541.241,538.327,0.0
51779.0,STARLINK-3611,PAYLOAD,2022-11-02 07:58:31,15.08831064,0.0002137,53.2174,70.9929,24.2019,335.9073,0.00011671,1.569e-05,0.0,0 STARLINK-3611,1 51779U 22017M   22306.33230929  .00001569  00000-0  11671-3 0  9995,2 51779  53.2174  70.9929 0002137  24.2019 335.9073 15.08831064 39378,6917.908,95.438,541.251,538.294,0.0
51779.0,STARLINK-3611,PAYLOAD,2022-11-02 12:44:40,15.0883371,0.0002088,53.2176,70.1011,28.4133,331.6972,8.6275e-05,1.085e-05,0.0,0 STARLINK-3611,1 51779U 22017M   22306.53102961  .00001085  00000-0  86275-4 0  9997,2 51779  53.2176  70.1011 0002088  28.4133 331.6972 15.08833710 37911,6917.9,95.438,541.2090000000002,538.32,0.0
51779.0,STARLINK-3611,PAYLOAD,2022-11-03 12:35:28,15.08829903,0.0001908,53.2188,65.6416,30.0276,330.0825,0.00019326,2.788e-05,0.0,0 STARLINK-3611,1 51779U 22017M   22307.52463351  .00002788  00000-0  19326-3 0  9993,2 51779  53.2188  65.6416 0001908  30.0276 330.0825 15.08829903 39550,6917.911,95.438,541.096,538.456,0.0
51779.0,STARLINK-3611,PAYLOAD,2022-11-04 07:40:03,15.0885657,0.0002383,53.219,62.0743,40.9829,319.1342,0.00023422,3.443e-05,0.0,0 STARLINK-3611,1 51779U 22017M   22308.31949042  .00003443  00000-0  23422-3 0  9998,2 51779  53.2190  62.0743 0002383  40.9829 319.1342 15.08856570 39674,6917.83,95.437,541.3430000000002,538.0459999999998,0.0
51779.0,STARLINK-3611,PAYLOAD,2022-11-04 14:01:37,15.08844275,0.000214,53.2186,60.8837,35.5584,324.555,8.9974e-05,1.144e-05,0.0,0 STARLINK-3611,1 51779U 22017M   22308.58445982  .00001144  00000-0  89974-4 0  9992,2 51779  53.2186  60.8837 0002140  35.5584 324.5550 15.08844275 38228,6917.8669999999975,95.437,541.2130000000002,538.252,0.0
51779.0,STARLINK-3611,PAYLOAD,2022-11-05 07:30:52,15.088188,0.0002074,53.2187,57.6127,40.3745,319.7401,0.00022867,3.351e-05,0.0,0 STARLINK-3611,1 51779U 22017M   22309.31310961  .00003351  00000-0  22867-3 0  9991,2 51779  53.2187  57.6127 0002074  40.3745 319.7401 15.08818800 39827,6917.945,95.439,541.245,538.375,0.0
51779.0,STARLINK-3611,PAYLOAD,2022-11-05 12:17:03,15.08816686,0.0003042,53.2189,56.7225,33.8878,326.2308,-0.00025121,-4.282e-05,0.0,0 STARLINK-3611,1 51779U 22017M   22309.51185037 -.00004282  00000-0 -25121-3 0  9999,2 51779  53.2189  56.7225 0003042  33.8878 326.2308 15.08816686 38365,6917.9519999999975,95.439,541.9209999999998,537.712,0.0
51779.0,STARLINK-3611,PAYLOAD,2022-11-06 12:07:50,15.08827829,0.0002532,53.2173,52.25899999999999,22.0883,338.0218,-8.287799999999999e-05,-1.607e-05,0.0,0 STARLINK-3611,1 51779U 22017M   22310.50544020 -.00001607  00000-0 -82878-4 0  9992,2 51779  53.2173  52.2590 0002532  22.0883 338.0218 15.08827829 40009,6917.918000000002,95.438,541.534,538.031,0.0
51779.0,STARLINK-3611,PAYLOAD,2022-11-07 05:37:04,15.08828693,0.0001874,53.2189,48.9894,33.6409,326.4702,5.4593e-05,5.81e-06,0.0,0 STARLINK-3611,1 51779U 22017M   22311.23407803  .00000581  00000-0  54593-4 0  9991,2 51779  53.2189  48.9894 0001874  33.6409 326.4702 15.08828693 40116,6917.915,95.438,541.076,538.484,0.0
51779.0,STARLINK-3611,PAYLOAD,2022-11-07 13:34:00,15.08831219,0.0002253,53.2185,47.5037,28.6255,331.4861,7.1329e-05,8.47e-06,0.0,0 STARLINK-3611,1 51779U 22017M   22311.56528090  .00000847  00000-0  71329-4 0  9990,2 51779  53.2185  47.5037 0002253  28.6255 331.4861 15.08831219 38679,6917.906999999997,95.438,541.331,538.214,0.0
51779.0,STARLINK-3611,PAYLOAD,2022-11-07 23:06:18,15.08844042,0.000238,53.219,45.7193,31.1868,328.9265,0.00024452,3.606e-05,0.0,0 STARLINK-3611,1 51779U 22017M   22311.96270949  .00003606  00000-0  24452-3 0  9991,2 51779  53.2190  45.7193 0002380  31.1868 328.9265 15.08844042 40229,6917.868,95.437,541.379,538.087,0.0
51779.0,STARLINK-3611,PAYLOAD,2022-11-09 13:15:34,15.08831443,0.0002547,53.2197,38.5843,32.4724,327.6424,-1.8985e-05,-5.91e-06,0.0,0 STARLINK-3611,1 51779U 22017M   22313.55247974 -.00000591  00000-0 -18985-4 0  9997,2 51779  53.2197  38.5843 0002547  32.4724 327.6424 15.08831443 38971,6917.906999999997,95.438,541.534,538.01,0.0
51779.0,STARLINK-3611,PAYLOAD,2022-11-10 09:55:35,15.08830452,0.00024,53.2194,34.7191,34.2203,325.8944,-0.00017657,-3.097e-05,0.0,0 STARLINK-3611,1 51779U 22017M   22314.41360670 -.00003097  00000-0 -17657-3 0  9990,2 51779  53.2194  34.7191 0002400  34.2203 325.8944 15.08830452 39104,6917.91,95.438,541.435,538.114,0.0
51779.0,STARLINK-3611,PAYLOAD,2022-11-11 05:00:14,15.08815435,0.0002563999999999,53.2191,31.1482,30.6623,329.4519,-5.9945e-05,-1.242e-05,0.0,0 STARLINK-3611,1 51779U 22017M   22315.20849983 -.00001242  00000-0 -59945-4 0  9994,2 51779  53.2191  31.1482 0002564  30.6623 329.4519 15.08815435 40713,6917.955,95.439,541.594,538.047,0.0
51779.0,STARLINK-3611,PAYLOAD,2022-11-11 11:21:46,15.08818512,0.0003298,53.2182,29.9626,25.8601,334.2555,4.1599e-05,3.73e-06,0.0,0 STARLINK-3611,1 51779U 22017M   22315.47345955  .00000373  00000-0  41599-4 0  9991,2 51779  53.2182  29.9626 0003298  25.8601 334.2555 15.08818512 39266,6917.946,95.439,542.0930000000002,537.53,0.0
51779.0,STARLINK-3611,PAYLOAD,2022-11-11 12:57:09,15.08824414,0.0002639,53.2195,29.6633,31.3938,328.7212,3.7372e-05,3.06e-06,0.0,0 STARLINK-3611,1 51779U 22017M   22315.53969551  .00000306  00000-0  37372-4 0  9992,2 51779  53.2195  29.6633 0002639  31.3938 328.7212 15.08824414 40761,6917.928000000001,95.439,541.619,537.967,0.0
51779.0,STARLINK-3611,PAYLOAD,2022-11-12 04:51:00,15.08826804,0.0002336,53.2194,26.6892,31.1655,328.9475,0.00036421,5.511e-05,0.0,0 STARLINK-3611,1 51779U 22017M   22316.20208737  .00005511  00000-0  36421-3 0  9995,2 51779  53.2194  26.6892 0002336  31.1655 328.9475 15.08826804 40861,6917.920999999999,95.438,541.4019999999998,538.17,0.0
51779.0,STARLINK-3611,PAYLOAD,2022-11-12 11:12:32,15.0884411,0.0002442,53.2192,25.4994,32.9104,327.204,0.00038227,5.802e-05,0.0,0 STARLINK-3611,1 51779U 22017M   22316.46703812  .00005802  00000-0  38227-3 0  9996,2 51779  53.2192  25.4994 0002442  32.9104 327.2040 15.08844110 40900,6917.868,95.437,541.422,538.043,0.0
51779.0,STARLINK-3611,PAYLOAD,2022-11-12 14:23:18,15.08847914,0.0002566,53.2189,24.9052,31.276,328.8384,0.00036578,5.539e-05,0.0,0 STARLINK-3611,1 51779U 22017M   22316.59951602  .00005539  00000-0  36578-3 0  9996,2 51779  53.2189  24.9052 0002566  31.2760 328.8384 15.08847914 39431,6917.856,95.437,541.496,537.946,0.0
51779.0,STARLINK-3611,PAYLOAD,2022-11-13 04:41:46,15.08846678,0.0002534,53.2188,22.2282,35.2886,324.8273,0.00024225,3.5700000000000014e-05,0.0,0 STARLINK-3611,1 51779U 22017M   22317.19568111  .00003570  00000-0  24225-3 0  9991,2 51779  53.2188  22.2282 0002534  35.2886 324.8273 15.08846678 41010,6917.86,95.437,541.4780000000002,537.972,0.0
51779.0,STARLINK-3611,PAYLOAD,2022-11-13 11:03:19,15.08843108,0.0002424,53.2186,21.0393,31.3908,328.7228,5.8009e-05,6.35e-06,0.0,0 STARLINK-3611,1 51779U 22017M   22317.46064800  .00000635  00000-0  58009-4 0  9994,2 51779  53.2186  21.0393 0002424  31.3908 328.7228 15.08843108 41050,6917.871,95.437,541.413,538.059,0.0
51779.0,STARLINK-3611,PAYLOAD,2022-11-13 14:14:05,15.08846158,0.0002474,53.2184,20.4445,30.9811,329.1327,-1.4475999999999992e-05,-5.19e-06,0.0,0 STARLINK-3611,1 51779U 22017M   22317.59312463 -.00000519  00000-0 -14476-4 0  9992,2 51779  53.2184  20.4445 0002474  30.9811 329.1327 15.08846158 39580,6917.861999999999,95.437,541.438,538.015,0.0
51779.0,STARLINK-3611,PAYLOAD,2022-11-14 10:54:06,15.08838071,0.000265,53.2173,16.5824,25.7017,334.4107,-0.00020195,-3.501e-05,0.0,0 STARLINK-3611,1 51779U 22017M   22318.45424711 -.00003501  00000-0 -20195-3 0  9996,2 51779  53.2173  16.5824 0002650  25.7017 334.4107 15.08838071 39716,6917.886,95.438,541.585,537.918,0.0
51779.0,STARLINK-3611,PAYLOAD,2022-11-14 14:04:53,15.08845419,0.0002658,53.2186,15.9863,32.0874,328.0279,-7.763899999999999e-05,-1.524e-05,0.0,0 STARLINK-3611,1 51779U 22017M   22318.58672505 -.00001524  00000-0 -77639-4 0  9995,2 51779  53.2186  15.9863 0002658  32.0874 328.0279 15.08845419 39731,6917.864000000001,95.437,541.568,537.89,0.0
51779.0,STARLINK-3611,PAYLOAD,2022-11-15 07:34:07,15.08838014,0.0002666,53.2188,12.7146,30.4098,329.7048,0.00016815,2.389e-05,0.0,0 STARLINK-3611,1 51779U 22017M   22319.31536927  .00002389  00000-0  16815-3 0  9990,2 51779  53.2188  12.7146 0002666  30.4098 329.7048 15.08838014 41335,6917.886,95.438,541.596,537.9069999999998,0.0
51779.0,STARLINK-3611,PAYLOAD,2022-11-15 12:20:17,15.08830306,0.0002624,53.2197,11.822,29.5439,330.5701,8.3335e-05,1.038e-05,0.0,0 STARLINK-3611,1 51779U 22017M   22319.51409569  .00001038  00000-0  83335-4 0  9995,2 51779  53.2197  11.8220 0002624  29.5439 330.5701 15.08830306 39878,6917.91,95.438,541.59,537.96,0.0
